[{"OBJECT_NAME":"STARLINK-32944","OBJECT_ID":"2025-032T","EPOCH":"2025-12-25T03:19:47.299296","MEAN_MOTION":15.27600192,"ECCENTRICITY":0.00012215,"INCLINATION":42.9992,"RA_OF_ASC_NODE":37.4922,"ARG_OF_PERICENTER":280.9467,"MEAN_ANOMALY":79.1247,"EPHEMERIS_TYPE":0,"CLASSIFICATION_TYPE":"U","NORAD_CAT_ID":63022,"ELEMENT_SET_NO":999,"REV_AT_EPOCH":4921,"BSTAR":0.00074926122,"MEAN_MOTION_DOT":0.00020426,"MEAN_MOTION_DDOT":0},{"OBJECT_NAME":"STARLINK-32943","OBJECT_ID":"2025-032U","EPOCH":"2025-12-25T11:41:48.221088","MEAN_MOTION":15.27599407,"ECCENTRICITY":6.12e-5,"INCLINATION":43.0016,"RA_OF_ASC_NODE":34.9421,"ARG_OF_PERICENTER":303.2438,"MEAN_ANOMALY":56.8355,"EPHEMERIS_TYPE":0,"CLASSIFICATION_TYPE":"U","NORAD_CAT_ID":63023,"ELEMENT_SET_NO":999,"REV_AT_EPOCH":4927,"BSTAR":0.0012949,"MEAN_MOTION_DOT":0.00035564,"MEAN_MOTION_DDOT":0},{"OBJECT_NAME":"STARLINK-32803","OBJECT_ID":"2025-032V","EPOCH":"2025-12-25T03:45:28.404000","MEAN_MOTION":15.27581615,"ECCENTRICITY":0.00013315,"INCLINATION":43.0012,"RA_OF_ASC_NODE":36.7516,"ARG_OF_PERICENTER":253.9938,"MEAN_ANOMALY":106.0767,"EPHEMERIS_TYPE":0,"CLASSIFICATION_TYPE":"U","NORAD_CAT_ID":63024,"ELEMENT_SET_NO":999,"REV_AT_EPOCH":4906,"BSTAR":0.0010324609,"MEAN_MOTION_DOT":0.00028259,"MEAN_MOTION_DDOT":0},{"OBJECT_NAME":"STARLINK-32926","OBJECT_ID":"2025-032W","EPOCH":"2025-12-25T03:36:13.279680","MEAN_MOTION":15.27598984,"ECCENTRICITY":0.00012929,"INCLINATION":42.999,"RA_OF_ASC_NODE":36.7055,"ARG_OF_PERICENTER":268.0991,"MEAN_ANOMALY":91.9712,"EPHEMERIS_TYPE":0,"CLASSIFICATION_TYPE":"U","NORAD_CAT_ID":63025,"ELEMENT_SET_NO":999,"REV_AT_EPOCH":4922,"BSTAR":0.00088884841,"MEAN_MOTION_DOT":0.00024292,"MEAN_MOTION_DDOT":0},{"OBJECT_NAME":"STARLINK-32798","OBJECT_ID":"2025-034A","EPOCH":"2025-12-25T17:14:04.601184","MEAN_MOTION":15.30207065,"ECCENTRICITY":0.0001767,"INCLINATION":53.1589,"RA_OF_ASC_NODE":254.3466,"ARG_OF_PERICENTER":94.7339,"MEAN_ANOMALY":265.3864,"EPHEMERIS_TYPE":0,"CLASSIFICATION_TYPE":"U","NORAD_CAT_ID":63029,"ELEMENT_SET_NO":999,"REV_AT_EPOCH":4758,"BSTAR":0.0010059,"MEAN_MOTION_DOT":0.00029557,"MEAN_MOTION_DDOT":0},{"OBJECT_NAME":"STARLINK-32779","OBJECT_ID":"2025-034B","EPOCH":"2025-12-25T17:02:04.926336","MEAN_MOTION":15.30206735,"ECCENTRICITY":0.0001458,"INCLINATION":53.1598,"RA_OF_ASC_NODE":255.0037,"ARG_OF_PERICENTER":96.9939,"MEAN_ANOMALY":263.1227,"EPHEMERIS_TYPE":0,"CLASSIFICATION_TYPE":"U","NORAD_CAT_ID":63030,"ELEMENT_SET_NO":999,"REV_AT_EPOCH":4757,"BSTAR":0.00089023,"MEAN_MOTION_DOT":0.00026105,"MEAN_MOTION_DDOT":0},{"OBJECT_NAME":"STARLINK-32716","OBJECT_ID":"2025-034C","EPOCH":"2025-12-25T20:18:20.022048","MEAN_MOTION":15.30213844,"ECCENTRICITY":0.0004011,"INCLINATION":53.1588,"RA_OF_ASC_NODE":240.9312,"ARG_OF_PERICENTER":155.7699,"MEAN_ANOMALY":204.3491,"EPHEMERIS_TYPE":0,"CLASSIFICATION_TYPE":"U","NORAD_CAT_ID":63031,"ELEMENT_SET_NO":999,"REV_AT_EPOCH":4778,"BSTAR":0.00088646,"MEAN_MOTION_DOT":0.00026002,"MEAN_MOTION_DDOT":0},{"OBJECT_NAME":"STARLINK-32776","OBJECT_ID":"2025-034D","EPOCH":"2025-12-25T01:05:33.085248","MEAN_MOTION":15.30192653,"ECCENTRICITY":0.00011668,"INCLINATION":53.1566,"RA_OF_ASC_NODE":245.1847,"ARG_OF_PERICENTER":82.8129,"MEAN_ANOMALY":277.3004,"EPHEMERIS_TYPE":0,"CLASSIFICATION_TYPE":"U","NORAD_CAT_ID":63032,"ELEMENT_SET_NO":999,"REV_AT_EPOCH":4765,"BSTAR":0.00071589236,"MEAN_MOTION_DOT":0.00020898,"MEAN_MOTION_DDOT":0},{"OBJECT_NAME":"STARLINK-32772","OBJECT_ID":"2025-034E","EPOCH":"2025-12-25T20:39:36.994176","MEAN_MOTION":15.30208228,"ECCENTRICITY":0.000119,"INCLINATION":53.1593,"RA_OF_ASC_NODE":241.0341,"ARG_OF_PERICENTER":46.2679,"MEAN_ANOMALY":313.842,"EPHEMERIS_TYPE":0,"CLASSIFICATION_TYPE":"U","NORAD_CAT_ID":63033,"ELEMENT_SET_NO":999,"REV_AT_EPOCH":4778,"BSTAR":0.00038235,"MEAN_MOTION_DOT":0.00010985,"MEAN_MOTION_DDOT":0},{"OBJECT_NAME":"STARLINK-32830","OBJECT_ID":"2025-034F","EPOCH":"2025-12-25T09:47:19.473792","MEAN_MOTION":15.30199382,"ECCENTRICITY":0.0001389,"INCLINATION":53.1583,"RA_OF_ASC_NODE":243.1802,"ARG_OF_PERICENTER":83.4236,"MEAN_ANOMALY":276.6923,"EPHEMERIS_TYPE":0,"CLASSIFICATION_TYPE":"U","NORAD_CAT_ID":63034,"ELEMENT_SET_NO":999,"REV_AT_EPOCH":4771,"BSTAR":0.00076979,"MEAN_MOTION_DOT":0.00022509,"MEAN_MOTION_DDOT":0},{"OBJECT_NAME":"STARLINK-32801","OBJECT_ID":"2025-034G","EPOCH":"2025-12-25T02:19:52.496832","MEAN_MOTION":15.30128074,"ECCENTRICITY":8.235e-5,"INCLINATION":53.1593,"RA_OF_ASC_NODE":244.795,"ARG_OF_PERICENTER":71.5654,"MEAN_ANOMALY":288.5436,"EPHEMERIS_TYPE":0,"CLASSIFICATION_TYPE":"U","NORAD_CAT_ID":63035,"ELEMENT_SET_NO":999,"REV_AT_EPOCH":4765,"BSTAR":0.00078259049,"MEAN_MOTION_DOT":0.00022839,"MEAN_MOTION_DDOT":0},{"OBJECT_NAME":"STARLINK-32818","OBJECT_ID":"2025-034H","EPOCH":"2025-12-25T16:09:36.954432","MEAN_MOTION":15.30209529,"ECCENTRICITY":0.000163,"INCLINATION":53.1584,"RA_OF_ASC_NODE":241.9956,"ARG_OF_PERICENTER":82.1106,"MEAN_ANOMALY":278.008,"EPHEMERIS_TYPE":0,"CLASSIFICATION_TYPE":"U","NORAD_CAT_ID":63036,"ELEMENT_SET_NO":999,"REV_AT_EPOCH":4775,"BSTAR":0.0007402,"MEAN_MOTION_DOT":0.00021634,"MEAN_MOTION_DDOT":0},{"OBJECT_NAME":"STARLINK-32810","OBJECT_ID":"2025-034J","EPOCH":"2025-12-25T02:15:17.185824","MEAN_MOTION":15.30205532,"ECCENTRICITY":8.626e-5,"INCLINATION":53.1592,"RA_OF_ASC_NODE":244.777,"ARG_OF_PERICENTER":292.2451,"MEAN_ANOMALY":67.8458,"EPHEMERIS_TYPE":0,"CLASSIFICATION_TYPE":"U","NORAD_CAT_ID":63037,"ELEMENT_SET_NO":999,"REV_AT_EPOCH":4766,"BSTAR":0.0010621877,"MEAN_MOTION_DOT":0.00031237,"MEAN_MOTION_DDOT":0},{"OBJECT_NAME":"STARLINK-32812","OBJECT_ID":"2025-034K","EPOCH":"2025-12-25T16:15:41.681664","MEAN_MOTION":15.3020729,"ECCENTRICITY":0.0001555,"INCLINATION":53.1589,"RA_OF_ASC_NODE":242.015,"ARG_OF_PERICENTER":90.6981,"MEAN_ANOMALY":269.4197,"EPHEMERIS_TYPE":0,"CLASSIFICATION_TYPE":"U","NORAD_CAT_ID":63038,"ELEMENT_SET_NO":999,"REV_AT_EPOCH":4775,"BSTAR":0.00081679,"MEAN_MOTION_DOT":0.00023915,"MEAN_MOTION_DDOT":0},{"OBJECT_NAME":"STARLINK-32811","OBJECT_ID":"2025-034L","EPOCH":"2025-12-25T16:18:43.939872","MEAN_MOTION":15.30205989,"ECCENTRICITY":0.0001608,"INCLINATION":53.1594,"RA_OF_ASC_NODE":242.0319,"ARG_OF_PERICENTER":93.6211,"MEAN_ANOMALY":266.4974,"EPHEMERIS_TYPE":0,"CLASSIFICATION_TYPE":"U","NORAD_CAT_ID":63039,"ELEMENT_SET_NO":999,"REV_AT_EPOCH":4775,"BSTAR":0.00098764,"MEAN_MOTION_DOT":0.00029012,"MEAN_MOTION_DDOT":0},{"OBJECT_NAME":"STARLINK-32832","OBJECT_ID":"2025-034M","EPOCH":"2025-12-25T20:41:08.852064","MEAN_MOTION":15.3020936,"ECCENTRICITY":0.0001567,"INCLINATION":53.1578,"RA_OF_ASC_NODE":241.0352,"ARG_OF_PERICENTER":89.3249,"MEAN_ANOMALY":270.7932,"EPHEMERIS_TYPE":0,"CLASSIFICATION_TYPE":"U","NORAD_CAT_ID":63040,"ELEMENT_SET_NO":999,"REV_AT_EPOCH":4778,"BSTAR":0.00089899,"MEAN_MOTION_DOT":0.00026369,"MEAN_MOTION_DDOT":0}]
