STARLINK-32944          
1 63022U 25032T   25359.13874189  .00020426  00000+0  74926-3 0  9994
2 63022  42.9992  37.4922 0001221 280.9467  79.1247 15.27600192 49218
STARLINK-32943          
1 63023U 25032U   25359.48736367  .00035564  00000+0  12949-2 0  9993
2 63023  43.0016  34.9421 0000612 303.2438  56.8355 15.27599407 49278
STARLINK-32803          
1 63024U 25032V   25359.15657875  .00028259  00000+0  10325-2 0  9993
2 63024  43.0012  36.7516 0001331 253.9938 106.0767 15.27581615 49069
STARLINK-32926          
1 63025U 25032W   25359.15015370  .00024292  00000+0  88885-3 0  9992
2 63025  42.9990  36.7055 0001292 268.0991  91.9712 15.27598984 49220
STARLINK-32798          
1 63029U 25034A   25359.71810881  .00029557  00000+0  10059-2 0  9996
2 63029  53.1589 254.3466 0001767  94.7339 265.3864 15.30207065 47586
STARLINK-32779          
1 63030U 25034B   25359.70977924  .00026105  00000+0  89023-3 0  9993
2 63030  53.1598 255.0037 0001458  96.9939 263.1227 15.30206735 47578
STARLINK-32716          
1 63031U 25034C   25359.84606507  .00026002  00000+0  88646-3 0  9991
2 63031  53.1588 240.9312 0004011 155.7699 204.3491 15.30213844 47784
STARLINK-32776          
1 63032U 25034D   25359.04552182  .00020898  00000+0  71589-3 0  9998
2 63032  53.1566 245.1847 0001166  82.8129 277.3004 15.30192653 47657
STARLINK-32772          
1 63033U 25034E   25359.86084484  .00010985  00000+0  38235-3 0  9991
2 63033  53.1593 241.0341 0001190  46.2679 313.8420 15.30208228 47781
STARLINK-32830          
1 63034U 25034F   25359.40786428  .00022509  00000+0  76979-3 0  9991
2 63034  53.1583 243.1802 0001389  83.4236 276.6923 15.30199382 47715
STARLINK-32801          
1 63035U 25034G   25359.09713538  .00022839  00000+0  78259-3 0  9998
2 63035  53.1593 244.7950 0000823  71.5654 288.5436 15.30128074 47656
STARLINK-32818          
1 63036U 25034H   25359.67334438  .00021634  00000+0  74020-3 0  9995
2 63036  53.1584 241.9956 0001630  82.1106 278.0080 15.30209529 47754
STARLINK-32810          
1 63037U 25034J   25359.09394891  .00031237  00000+0  10622-2 0  9998
2 63037  53.1592 244.7770 0000862 292.2451  67.8458 15.30205532 47665
STARLINK-32812          
1 63038U 25034K   25359.67756576  .00023915  00000+0  81679-3 0  9990
2 63038  53.1589 242.0150 0001555  90.6981 269.4197 15.30207290 47756
STARLINK-32811          
1 63039U 25034L   25359.67967523  .00029012  00000+0  98764-3 0  9994
2 63039  53.1594 242.0319 0001608  93.6211 266.4974 15.30205989 47751
STARLINK-32832          
1 63040U 25034M   25359.86190801  .00026369  00000+0  89899-3 0  9995
2 63040  53.1578 241.0352 0001567  89.3249 270.7932 15.30209360 47780
